OPS 6582 (TRANSIT 5B-5) 
1 00965U 64083D   21176.78787602  .00000035  00000-0  35443-4 0  9994
2 00965  90.0190 194.4501 0040493 188.7621 345.3244 13.56757197797153
OSCAR 7 (AO-7)          
1 07530U 74089B   21176.93964558 -.00000053  00000-0 -45901-4 0  9992
2 07530 101.8541 151.4335 0012388   7.9815  10.4919 12.53649215132795
UOSAT 2 (UO-11)         
1 14781U 84021B   21176.96149315  .00000101  00000-0  18355-4 0  9999
2 14781  97.5923 176.3839 0009792  59.1330 301.0846 14.83295973987190
NOAA 9                  
1 15427U 84123A   21176.93924345  .00000003  00000-0  24327-4 0  9998
2 15427  98.9941 139.7855 0015927  95.9157 332.8879 14.16135895886385
LUSAT (LO-19)           
1 20442U 90005G   21176.86605339 -.00000000  00000-0  16402-4 0  9991
2 20442  98.7419 132.4091 0012546 132.4916 227.7329 14.32989688642097
ITAMSAT (IO-26)         
1 22826U 93061D   21176.95241495 -.00000004  00000-0  16332-4 0  9999
2 22826  98.9108 194.6847 0008989   4.8356 355.2911 14.30456959447441
RADIO ROSTO (RS-15)     
1 23439U 94085A   21176.95120225 -.00000037  00000-0  15882-3 0  9998
2 23439  64.8174   2.2193 0161409 333.8628  25.4213 11.27570385 91291
JAS-2 (FO-29)           
1 24278U 96046B   21177.10149963 -.00000003  00000-0  30354-4 0  9992
2 24278  98.5668 243.9325 0351262 127.1738 236.2023 13.53105242227660
NOAA 15                 
1 25338U 98030A   21177.06679803  .00000078  00000-0  51066-4 0  9995
2 25338  98.6809 205.5145 0009231 253.7409 106.2755 14.26040248202472
TECHSAT 1B (GO-32)      
1 25397U 98043D   21176.83933543 -.00000015  00000-0  13025-4 0  9997
2 25397  98.7714 122.3685 0002354  72.3518 287.7917 14.23710420192907
ISS (ZARYA)             
1 25544U 98067A   21177.19543338  .00003617  00000-0  74436-4 0  9999
2 25544  51.6453 298.1729 0002234 104.1647 327.9113 15.48735396289992
ORSTED                  
1 25635U 99008B   21177.07532832  .00000043  00000-0  18168-4 0  9990
2 25635  96.4764 119.7188 0137032 237.9591 120.8236 14.48297912178966
PHASE 3D (AO-40)        
1 26609U 00072B   21174.48707193 -.00000178  00000-0  00000-0 0  9993
2 26609   9.1677 323.0843 7946551 266.0820  11.0443  1.25586971 94661
PCSAT (NO-44)           
1 26931U 01043C   21176.91661248 -.00000017  00000-0  25340-4 0  9990
2 26931  67.0512 258.5955 0006342 261.1242  98.9141 14.30622874 30402
SAUDISAT 1C (SO-50)     
1 27607U 02058C   21176.77122682 -.00000011  00000-0  18911-4 0  9996
2 27607  64.5560 312.9102 0041563  18.1886 342.0692 14.75759765995756
CUTE-1 (CO-55)          
1 27844U 03031E   21176.91803701  .00000041  00000-0  37871-4 0  9993
2 27844  98.6791 185.0022 0010952  58.4576 301.7670 14.22316266933188
CUBESAT XI-IV (CO-57)   
1 27848U 03031J   21176.91374510  .00000039  00000-0  37233-4 0  9997
2 27848  98.6847 185.5619 0010953  70.4119 289.8240 14.21892552933016
MOZHAYETS 4 (RS-22)     
1 27939U 03042A   21176.90783836  .00000033  00000-0  14598-4 0  9997
2 27939  98.1418 313.9425 0011636 251.0381 108.9553 14.66993595948769
INMARSAT 4-F1           
1 28628U 05009A   21176.91386569 -.00000270  00000-0  00000+0 0  9993
2 28628   3.3726  31.1855 0003253  68.2861 287.2598  1.00271172 59440
NOAA 18                 
1 28654U 05018A   21177.08726478  .00000087  00000-0  71680-4 0  9990
2 28654  98.9934 241.9861 0013220 256.3473 103.6226 14.12616919829759
CUBESAT XI-V            
1 28895U 05043F   21176.90138211  .00000147  00000-0  37146-4 0  9993
2 28895  98.0602 309.9556 0016842 179.1820 180.9413 14.63924400835246
METOP-A                 
1 29499U 06044A   21177.05708782  .00000008  00000-0  22767-4 0  9998
2 29499  98.4709 215.9835 0000747 101.9567 317.2232 14.21502510761962
CARTOSAT-2 (IRS-P7)     
1 29710U 07001B   21176.77774970  .00003136  00000-0  97914-4 0  9999
2 29710  97.8750 259.5420 0169792 217.9484 140.9688 15.21166333781916
FALCONSAT-3             
1 30776U 07006E   21176.91675862  .00004267  00000-0  10255-3 0  9992
2 30776  35.4352  45.8328 0003204 323.4513  36.5996 15.40849040794415
CAPE-1                  
1 31130U 07012P   21177.05105170  .00000145  00000-0  41395-4 0  9991
2 31130  98.2341 116.0609 0094956 318.4191  40.9812 14.56693345753195
CARTOSAT-2A             
1 32783U 08021A   21177.13726942  .00000270  00000-0  43711-4 0  9995
2 32783  97.8714 236.1793 0011563 235.2877 124.7316 14.78721832710366
CUTE-1.7+APD II (CO-65) 
1 32785U 08021C   21177.00274550  .00000289  00000-0  36578-4 0  9999
2 32785  97.6113 155.5136 0012439 342.1528  17.9251 14.88736526713516
COMPASS-1               
1 32787U 08021E   21176.96698187  .00000454  00000-0  47513-4 0  9996
2 32787  97.5289 167.5568 0010624 260.0692  99.9330 14.94150061714854
AAUSAT-II               
1 32788U 08021F   21176.91920628  .00000830  00000-0  79628-4 0  9990
2 32788  97.5042 171.2211 0010214 237.2527 122.7711 14.95609458715126
DELFI-C3 (DO-64)        
1 32789U 08021G   21176.63752522  .00002238  00000-0  14501-3 0  9998
2 32789  97.3751 211.6883 0013456 111.9266 248.3395 15.09040290718063
SEEDS II (CO-66)        
1 32791U 08021J   21176.88284593  .00000376  00000-0  42944-4 0  9990
2 32791  97.5710 161.3024 0011772 302.7127  57.2956 14.91426326714037
YUBILEINY (RS-30)       
1 32953U 08025A   21176.11519565  .00000021  00000-0  80971-4 0  9999
2 32953  82.5057  46.1677 0019400 323.3121  36.6633 12.43102099593938
FENGYUN 3A              
1 32958U 08026A   21176.94953957 -.00000012  00000-0  14014-4 0  9999
2 32958  98.4505 150.2340 0008381 342.9654  17.1240 14.18659639677780
PRISM (HITOMI)          
1 33493U 09002B   21176.88018616  .00000284  00000-0  29802-4 0  9997
2 33493  98.1887 139.8288 0013777 259.5651 100.4017 14.97690553675585
STARS (KUKAI)           
1 33498U 09002G   21176.85237497  .00000243  00000-0  40046-4 0  9997
2 33498  98.2130  57.0995 0010140 326.0648  33.9913 14.79365375668707
KKS-1 (KISEKI)          
1 33499U 09002H   21176.87963503  .00000120  00000-0  25435-4 0  9993
2 33499  98.2676  47.0389 0009597  22.2195 337.9427 14.75667893667651
NOAA 19                 
1 33591U 09005A   21177.05132796  .00000098  00000-0  78478-4 0  9991
2 33591  99.1824 197.9700 0014976 107.3613 252.9197 14.12477771638134
SWISSCUBE               
1 35932U 09051B   21176.52992265  .00000150  00000-0  44685-4 0  9991
2 35932  98.6022  16.8044 0008752  66.7335 293.4782 14.56545194624175
BEESAT-1                
1 35933U 09051C   21176.49523936  .00000124  00000-0  38778-4 0  9990
2 35933  98.5985  18.5843 0007005  78.2598 281.9384 14.56601706624282
ITUPSAT1                
1 35935U 09051E   21176.50419163  .00000104  00000-0  35042-4 0  9999
2 35935  98.6088  18.7300 0009327  78.7765 281.4480 14.55733582623940
XIWANG-1 (HOPE-1)       
1 36122U 09072B   21177.04189445 -.00000020  00000-0  57703-4 0  9994
2 36122 100.1308 157.3501 0008172  83.5483 276.6608 13.16361456554027
CARTOSAT-2B             
1 36795U 10035A   21177.10567691 -.00006865  00000-0 -92832-3 0  9996
2 36795  97.8886 235.5576 0012299 318.5407  41.5262 14.78728882591406
TISAT 1                 
1 36799U 10035E   21176.76864863  .00000355  00000-0  41379-4 0  9999
2 36799  98.2055   7.9224 0012015 179.9031 180.2191 14.91758335594576
FENGYUN 3B              
1 37214U 10059A   21177.15140021  .00000009  00000-0  28054-4 0  9996
2 37214  99.0783 171.4114 0015992 291.1494  68.7962 14.15990208550568
JUGNU                   
1 37839U 11058B   21177.07290272  .00000298  00000-0  16688-4 0  9994
2 37839  19.9597 176.9213 0018886 186.7507 225.9666 14.12717363501799
SRMSAT                  
1 37841U 11058D   21176.64636736  .00000293  00000-0  16008-4 0  9999
2 37841  19.9714 251.5630 0012018  24.4990 130.5586 14.10697700500826
M-CUBED & EXP-1 PRIME   
1 37855U 11061F   21176.71847288  .00003237  00000-0  16106-3 0  9991
2 37855 101.7128 104.4009 0166965  46.1438 315.3434 15.07732372527898
HORYU-2                 
1 38340U 12025D   21176.82214561  .00000225  00000-0  40493-4 0  9997
2 38340  98.2323 244.3381 0010125 290.8513  69.1611 14.76055153479628
METOP-B                 
1 38771U 12049A   21177.10918765  .00000005  00000-0  22414-4 0  9999
2 38771  98.7143 237.0768 0001395  45.7683  11.6658 14.21485427455104
SARAL                   
1 39086U 13009A   21176.84442108 -.00000025  00000-0  68537-5 0  9999
2 39086  98.5460   2.7663 0000716 137.8331 222.2908 14.32054773435445
AAUSAT 3                
1 39087U 13009B   21169.49286443  .00000135  00000-0  61273-4 0  9991
2 39087  98.4254  12.7664 0011455 274.5293  85.4586 14.35941413435345
STRAND-1                
1 39090U 13009E   21176.49378911  .00000011  00000-0  18977-4 0  9991
2 39090  98.4272  18.5070 0007939 253.0932 106.9384 14.35174472436213
BRITE-AUSTRIA           
1 39091U 13009F   21176.54813324  .00000029  00000-0  25218-4 0  9995
2 39091  98.4274  17.6927 0009288 260.4607  99.5530 14.35191832436249
UNIBRITE                
1 39092U 13009G   21176.53775963  .00000007  00000-0  17452-4 0  9998
2 39092  98.4304  17.3899 0008190 254.4609 105.5673 14.35062655436207
SOMP                    
1 39134U 13015E   21176.72032984  .00002277  00000-0  10612-3 0  9993
2 39134  64.8626 145.5808 0009365 316.6416  43.3975 15.22643193452474
BEESAT-3                
1 39135U 13015F   21176.80305810  .00001459  00000-0  77896-4 0  9993
2 39135  64.8646 174.6383 0004726 345.6116  14.4876 15.19421778451885
BEESAT-2                
1 39136U 13015G   21176.47521168  .00001162  00000-0  64941-4 0  9991
2 39136  64.8735 182.1237 0023033 244.6468 115.2273 15.18781226452133
NEE-01 PEGASO           
1 39151U 13018B   21177.00939180  .00000184  00000-0  31089-4 0  9998
2 39151  97.9803 279.4144 0016224 334.8024  25.2394 14.80360281440946
CUBEBUG-1 (CAPITAN BETO)
1 39153U 13018D   21177.02354588  .00000208  00000-0  33782-4 0  9994
2 39153  97.9954 282.7038 0015986 329.8243  30.2047 14.80942858441077
